HST                     
1 20580U 90037B   22130.51741108  .00002069  00000+0  11195-3 0  9995
2 20580  28.4705  60.1439 0002583 349.4807 173.6572 15.10406514560479
POLAR                   
1 23802U 96013A   22129.51706491  .00000206  00000+0  00000+0 0  9999
2 23802  78.7571 242.0029 5829648 260.1976  33.0265  1.29847001125384
SWAS                    
1 25560U 98071A   22130.29862277  .00001337  00000+0  13158-3 0  9998
2 25560  69.8986  82.3068 0007311 354.6635   5.4443 14.94629108272327
CXO                     
1 25867U 99040B   22131.02399188  .00000912  00000+0  00000+0 0  9999
2 25867  46.4167 237.8374 8781425 232.6615 359.7744  0.37815092 11659
XMM-NEWTON              
1 25989U 99066A   22130.59950153 -.00000043  00000+0  00000+0 0  9994
2 25989  70.1907 305.4074 6094935  87.2514 359.9656  0.50131930 15499
TERRA                   
1 25994U 99068A   22130.49176743  .00000242  00000+0  63654-4 0  9995
2 25994  98.1380 203.2788 0001419  97.5892 272.8534 14.57151201190979
CLUSTER II-FM7 (SAMBA)  
1 26410U 00041A   22132.70215113  .00000596  00000+0  00000+0 0  9996
2 26410 133.9870 347.4212 5561603 198.6317   0.5144  0.44208715 13650
CLUSTER II-FM6 (SALSA)  
1 26411U 00041B   22132.67352039  .00000590  00000+0  00000+0 0  9996
2 26411 136.0046 350.6974 7199383 203.3049   0.7659  0.44217502 13692
CLUSTER II-FM5 (RUMBA)  
1 26463U 00045A   22132.67703585  .00000673  00000+0  00000+0 0  9995
2 26463 139.5705 350.9682 6716530 204.0701   0.6540  0.44217853 13584
CLUSTER II-FM8 (TANGO)  
1 26464U 00045B   22132.68093311  .00000595  00000+0  00000+0 0  9999
2 26464 133.9876 347.4131 5560139 198.6442   0.4808  0.44219636 13668
ODIN                    
1 26702U 01007A   22130.54625470  .00002301  00000+0  14665-3 0  9996
2 26702  97.5227 145.9837 0012101  65.8071 294.4422 15.09662940160556
TIMED                   
1 26998U 01055B   22130.33991463  .00000546  00000+0  62642-4 0  9999
2 26998  74.0734 355.5739 0002056 250.3313 109.7646 14.88611502107331
RHESSI                  
1 27370U 02004A   22130.60403756  .00015922  00000+0  36435-3 0  9996
2 27370  38.0319 238.4952 0007201 255.7601 104.2374 15.42165100120766
INTEGRAL                
1 27540U 02048A   22124.85555556  .00000168  00000+0  00000+0 0  9990
2 27540  74.0303  62.1275 8923731 299.0082   8.5987  0.37595251 20986
CORIOLIS                
1 27640U 03001A   22130.67472118  .00000062  00000+0  50515-4 0  9994
2 27640  98.7186 140.2639 0013716 202.0003 271.2738 14.19123211  1590
SORCE                   
1 27651U 03004A   22130.52614825  .00001052  00000+0  12124-3 0  9999
2 27651  39.9959  69.2481 0023897 208.8587 151.0882 14.89805908 47417
MOST                    
1 27843U 03031D   22130.53399584  .00000044  00000+0  40549-4 0  9998
2 27843  98.7085 138.6951 0008873 255.9762 104.0428 14.20678511977869
SCISAT 1                
1 27858U 03036A   22130.59420367  .00000384  00000+0  58711-4 0  9996
2 27858  73.9331 258.8345 0009024 301.9601  58.0696 14.77525304  9841
SWIFT                   
1 28485U 04047A   22130.54525644  .00003339  00000+0  19121-3 0  9999
2 28485  20.5561 216.4707 0010772 176.2388 183.8128 15.06173110957824
CLOUDSAT                
1 29107U 06016A   22130.51127619  .00000217  00000+0  51843-4 0  9996
2 29107  98.3253  90.3130 0004602  71.1712 288.9988 14.62956200853483
CALIPSO                 
1 29108U 06016B   22130.50930634  .00000681  00000+0  14275-3 0  9997
2 29108  98.3225  89.8929 0001467  87.1896 272.9474 14.62873585853474
HINODE (SOLAR-B)        
1 29479U 06041A   22130.53003721  .00000449  00000+0  93095-4 0  9997
2 29479  98.1231 146.1731 0018153 349.9895  10.0944 14.64781130835206
SJ-6C                   
1 29505U 06046A   22130.50182564  .00002053  00000+0  18859-3 0  9999
2 29505  97.7806 151.7741 0002850 243.0129 117.0769 14.95924779847021
SJ-6D                   
1 29506U 06046B   22130.56972952  .00000382  00000+0  41213-4 0  9998
2 29506  97.8000 152.0152 0002343  28.7302 331.4028 14.93977008846487
AGILE                   
1 31135U 07013A   22129.22624198  .00010706  00000+0  25148-3 0  9990
2 31135   2.4662 181.3301 0010709 197.1336 162.8356 15.37066604838298
AIM                     
1 31304U 07015A   22130.34632780  .00005494  00000+0  28117-3 0  9998
2 31304  97.8560  48.1420 0006261 132.0936 228.0829 15.17052783825416
FGRST (GLAST)           
1 33053U 08029A   22130.48971465  .00001539  00000+0  70159-4 0  9998
2 33053  25.5830  66.0236 0012345 100.0350 260.1579 15.12075240767946
WISE                    
1 36119U 09071A   22130.54483471  .00005446  00000+0  17272-3 0  9991
2 36119  97.2437 165.7294 0004191  87.5836 272.5886 15.33092030689692
SDO                     
1 36395U 10005A   22130.42787688 -.00000030  00000+0  00000+0 0  9992
2 36395  31.5818 109.8348 0001734 269.5842 261.0212  1.00272729 45034
CRYOSAT 2               
1 36508U 10013A   22130.55508228  .00000204  00000+0  49971-4 0  9999
2 36508  92.0304 274.8740 0006616  38.4154 321.7523 14.51895972640631
X-SAT                   
1 37389U 11015C   22130.50625102  .00000048  00000+0  38432-4 0  9992
2 37389  98.3388 165.6928 0015354  65.8108 294.4678 14.24418998574808
GCOM-W1 (SHIZUKU)       
1 38337U 12025A   22130.61602435  .00000328  00000+0  82888-4 0  9999
2 38337  98.2008  71.6851 0001464  60.5126 112.2956 14.57121625530802
NUSTAR                  
1 38358U 12031A   22128.40531255  .00002883  00000+0  22332-3 0  9999
2 38358   6.0276 295.1168 0010793 122.3010 237.8164 14.89208029538876
NEOSSAT                 
1 39089U 13009D   22130.44864464  .00000123  00000+0  58736-4 0  9998
2 39089  98.4252 327.7026 0012006  35.8448 324.3541 14.34649693481766
BRITE-AUSTRIA           
1 39091U 13009F   22130.42941658  .00000113  00000+0  54187-4 0  9995
2 39091  98.4088 328.7180 0011189  36.9025 323.2929 14.35260357481970
IRIS                    
1 39197U 13033A   22130.43207659  .00000619  00000+0  90033-4 0  9997
2 39197  97.9705 316.6157 0028179 149.6452 210.6398 14.79172911478353
HISAKI (SPRINT-A)       
1 39253U 13049A   22130.59092286  .00000158  00000+0  12745-3 0  9993
2 39253  29.7198 277.1632 0136643 110.2359 251.2960 13.55276897427968
CASSIOPE                
1 39265U 13055A   22130.52908142  .00012103  00000+0  32181-3 0  9992
2 39265  80.9632 307.5389 0626934  70.6074 296.1758 14.37834786446883
STSAT-3                 
1 39422U 13066G   22130.55565658  .00000916  00000+0  98955-4 0  9994
2 39422  97.4711 137.7498 0023892  51.0502 309.2847 14.90380525460197
SWARM B                 
1 39451U 13067A   22130.56313934  .00001950  00000+0  88223-4 0  9992
2 39451  87.7504  72.6440 0003245  86.4961 273.6655 15.20308693455179
SWARM A                 
1 39452U 13067B   22130.11313798  .00007160  00000+0  13754-3 0  9997
2 39452  87.3618 238.4184 0002724 115.2455 244.9086 15.47741114476023
SWARM C                 
1 39453U 13067C   22130.50049615  .00007118  00000+0  13674-3 0  9999
2 39453  87.3471 237.8252 0002726 115.1370 245.0172 15.47739563476042
BRITE-CA1 (TORONTO)     
1 40020U 14033L   22130.42646002  .00000382  00000+0  72817-4 0  9990
2 40020  97.7743 291.3314 0087462  25.6726 334.8782 14.66995124422081
OCO 2                   
1 40059U 14035A   22130.57970344  .00000282  00000+0  72673-4 0  9998
2 40059  98.2001  72.3841 0001457  98.2196 261.9168 14.57115885417816
BRITE-PL2 (HEWELIUSZ)   
1 40119U 14049B   22130.54521820  .00000823  00000+0  10253-3 0  9994
2 40119  97.8811 226.5668 0017365  11.1625 348.9972 14.85040328418385
RESURS P2               
1 40360U 14087A   22130.50907471  .00004899  00000+0  14104-3 0  9996
2 40360  97.2054 216.1785 0008285 218.0630 199.1292 15.36190308412438
MMS 1                   
1 40482U 15011A   22128.89087404 -.00000164  00000+0  00000+0 0  9991
2 40482  32.4787 106.6660 8624505  50.0416  11.0592  0.28429382 13192
MMS 2                   
1 40483U 15011B   22128.82687304 -.00000172  00000+0  00000+0 0  9999
2 40483  32.4772 106.6740 8625794  50.0322   4.5175  0.28432583 13251
MMS 3                   
1 40484U 15011C   22117.95509259 -.00000187  00000+0  00000+0 0  9990
2 40484  32.5075 107.0308 8614036  49.5891 331.9915  0.28416917 12896
MMS 4                   
1 40485U 15011D   22125.43660615 -.00000489  00000+0  00000+0 0  9992
2 40485  32.5353 106.8589 8622666  49.8342  17.5676  0.28434910 13150
ASTROSAT                
1 40930U 15052A   22129.29699121  .00001265  00000+0  87820-4 0  9996
2 40930   5.9965  97.4857 0009073 318.4617  41.4821 14.76590998357352
DAMPE                   
1 41173U 15078A   22130.54271777  .00000906  00000+0  39865-4 0  9994
2 41173  97.3763 121.8969 0013094 341.0889 167.4327 15.24365455355800
PISAT                   
1 41784U 16059B   22130.34149127  .00000435  00000+0  91640-4 0  9999
2 41784  97.9193 175.1701 0030386 290.8567  68.9383 14.63857227300110
HXMT (HUIYAN)           
1 42758U 17034A   22130.59008756  .00002772  00000+0  17967-3 0  9999
2 42758  43.0165 196.5387 0007999  34.4565  70.9670 15.10248992270455
FLYING LAPTOP           
1 42831U 17042G   22130.56381215  .00001562  00000+0  16007-3 0  9991
2 42831  97.4279 347.2176 0015201 130.3580 229.8998 14.91700752262448
PICSAT                  
1 43132U 18004X   22130.19140580  .00011128  00000+0  38163-3 0  9998
2 43132  97.3727 206.8046 0009334 131.4672 228.7372 15.30298653240558
ZHANGZHENG-1 (CSES)     
1 43194U 18015C   22130.62050648  .00006825  00000+0  30942-3 0  9996
2 43194  97.5166 261.4406 0008214 241.9955 128.5051 15.21136833236871
ICON                    
1 44628U 19068A   22130.52719326  .00001899  00000+0  16010-3 0  9998
2 44628  26.9885 196.4856 0018107 294.0151  65.8511 14.92690776140891
SALSAT                  
1 46495U 20068K   22130.38434041  .00002722  00000+0  19933-3 0  9999
2 46495  97.7268  71.6831 0017668  49.7759 310.5009 15.04308591 88464
IXPE                    
1 49954U 21121A   22129.01005387  .00002649  00000+0  18455-3 0  9994
2 49954   0.2312 312.1698 0011114  73.7487 334.1374 14.91222631 22533
